STARLINK-37131          
1 68605U 26073D   26106.93233073  .00139190  00000+0  71344-3 0  9992
2 68605  97.2847 304.5470 0000807  59.4627 300.6721 15.80890665  1575
