{
  "norad_id": 68605,
  "name": "STARLINK-37131",
  "history": [
    {
      "epoch": "2026-04-16T22:22:33.375072Z",
      "apogee_km": 328.4620616352913,
      "perigee_km": 327.3793015620204,
      "latitude_deg": 1.99336339264087e-05,
      "longitude_deg": 123.83498922740995,
      "height_km": 330.8204229719592,
      "semi_major_axis_km": 6706.057681598655,
      "eccentricity": 8.073e-05,
      "inclination_deg": 97.2847,
      "raan_deg": 304.547,
      "arg_perigee_deg": 59.4627,
      "mean_anomaly_deg": 300.6721,
      "mean_motion_rev_day": 15.80890665
    }
  ]
}